STARLINK-36520          
1 67466U 26008X   26035.16668981 -.02098512  00000+0 -21008-1 0  9996
2 67466  42.9997  36.9036 0000898 259.3633 265.7046 15.68034686  4409
STARLINK-36425          
1 67467U 26008Y   26035.16668981 -.02111752  00000+0 -28696-1 0  9999
2 67467  42.9994  37.0776 0000747 262.4184 192.1870 15.59873993  4409
STARLINK-36414          
1 67468U 26008Z   26035.16668981 -.02104677  00000+0 -22671-1 0  9995
2 67468  43.0001  36.6551 0001164 255.3440   8.6593 15.66262035  4407
STARLINK-36441          
1 67469U 26008AA  26035.16668981 -.02093087  00000+0 -25674-1 0  9994
2 67469  43.0001  36.7113 0001050 255.7707 345.0530 15.63018100  4405
STARLINK-36454          
1 67470U 26008AB  26035.16668981 -.02088356  00000+0 -23907-1 0  9996
2 67470  42.9999  36.6676 0001078 256.8532   1.2650 15.64733980  4407
STARLINK-36334          
1 67471U 26008AC  26035.16668981 -.02104579  00000+0 -20857-1 0  9994
2 67471  42.9998  36.6175 0001165 255.6186  22.9166 15.68284956  4400
STARLINK-36269          
1 67472U 26008AD  26035.16668981 -.02399750  00000+0 -25566-1 0  9994
2 67472  42.9998  36.6327 0001538 241.8924  30.0773 15.66416064  4422
STARLINK-36408          
1 67473U 26008AE  26035.16668981 -.02089136  00000+0 -24896-1 0  9994
2 67473  42.9999  36.6739 0001081 257.6284 357.5673 15.63734847  4423
ALSAT-3A                
1 67474U 26009A   26035.18083958  .00007812  00000+0  33092-3 0  9990
2 67474  97.4686 109.8619 0012098 185.5919 174.5184 15.23369218  3027
CZ-2C R/B               
1 67475U 26009B   26035.18491315  .00004099  00000+0  27635-3 0  9991
2 67475  97.1770 108.1935 0100186 153.5355 207.1038 15.03089854  3043
TIANQI-37               
1 67476U 26010A   26035.17821397  .00000449  00000+0  30703-3 0  9995
2 67476  44.9832 315.3316 0013007  49.1689 311.0275 14.13524596  2744
TIANQI-38               
1 67477U 26010B   26035.17488340  .00000580  00000+0  37334-3 0  9996
2 67477  44.9794 315.3064 0011811  54.4164 305.7774 14.13901736  2749
