CCSDS_OMM_VERS = 2.0
CREATION_DATE  = 
ORIGINATOR     = 

OBJECT_NAME    = STARLINK-36520
OBJECT_ID      = 2026-008X
CENTER_NAME    = EARTH
REF_FRAME      = TEME
TIME_SYSTEM    = UTC
MEAN_ELEMENT_THEORY = SGP/SGP4

EPOCH          = 2026-02-04T04:00:01.999584
MEAN_MOTION    = 15.68034686
ECCENTRICITY   = .0000898
INCLINATION    = 42.9997
RA_OF_ASC_NODE = 36.9036
ARG_OF_PERICENTER = 259.3633
MEAN_ANOMALY   = 265.7046

EPHEMERIS_TYPE = 0
CLASSIFICATION_TYPE = U
NORAD_CAT_ID   = 67466
ELEMENT_SET_NO = 999
REV_AT_EPOCH   = 440
BSTAR          = -.21008E-1
MEAN_MOTION_DOT = -.2098512E-1
MEAN_MOTION_DDOT = 0

CCSDS_OMM_VERS = 2.0
CREATION_DATE  = 
ORIGINATOR     = 

OBJECT_NAME    = STARLINK-36425
OBJECT_ID      = 2026-008Y
CENTER_NAME    = EARTH
REF_FRAME      = TEME
TIME_SYSTEM    = UTC
MEAN_ELEMENT_THEORY = SGP/SGP4

EPOCH          = 2026-02-04T04:00:01.999584
MEAN_MOTION    = 15.59873993
ECCENTRICITY   = .0000747
INCLINATION    = 42.9994
RA_OF_ASC_NODE = 37.0776
ARG_OF_PERICENTER = 262.4184
MEAN_ANOMALY   = 192.1870

EPHEMERIS_TYPE = 0
CLASSIFICATION_TYPE = U
NORAD_CAT_ID   = 67467
ELEMENT_SET_NO = 999
REV_AT_EPOCH   = 440
BSTAR          = -.28696E-1
MEAN_MOTION_DOT = -.2111752E-1
MEAN_MOTION_DDOT = 0

CCSDS_OMM_VERS = 2.0
CREATION_DATE  = 
ORIGINATOR     = 

OBJECT_NAME    = STARLINK-36414
OBJECT_ID      = 2026-008Z
CENTER_NAME    = EARTH
REF_FRAME      = TEME
TIME_SYSTEM    = UTC
MEAN_ELEMENT_THEORY = SGP/SGP4

EPOCH          = 2026-02-04T04:00:01.999584
MEAN_MOTION    = 15.66262035
ECCENTRICITY   = .0001164
INCLINATION    = 43.0001
RA_OF_ASC_NODE = 36.6551
ARG_OF_PERICENTER = 255.3440
MEAN_ANOMALY   = 8.6593

EPHEMERIS_TYPE = 0
CLASSIFICATION_TYPE = U
NORAD_CAT_ID   = 67468
ELEMENT_SET_NO = 999
REV_AT_EPOCH   = 440
BSTAR          = -.22671E-1
MEAN_MOTION_DOT = -.2104677E-1
MEAN_MOTION_DDOT = 0

CCSDS_OMM_VERS = 2.0
CREATION_DATE  = 
ORIGINATOR     = 

OBJECT_NAME    = STARLINK-36441
OBJECT_ID      = 2026-008AA
CENTER_NAME    = EARTH
REF_FRAME      = TEME
TIME_SYSTEM    = UTC
MEAN_ELEMENT_THEORY = SGP/SGP4

EPOCH          = 2026-02-04T04:00:01.999584
MEAN_MOTION    = 15.63018100
ECCENTRICITY   = .000105
INCLINATION    = 43.0001
RA_OF_ASC_NODE = 36.7113
ARG_OF_PERICENTER = 255.7707
MEAN_ANOMALY   = 345.0530

EPHEMERIS_TYPE = 0
CLASSIFICATION_TYPE = U
NORAD_CAT_ID   = 67469
ELEMENT_SET_NO = 999
REV_AT_EPOCH   = 440
BSTAR          = -.25674E-1
MEAN_MOTION_DOT = -.2093087E-1
MEAN_MOTION_DDOT = 0

CCSDS_OMM_VERS = 2.0
CREATION_DATE  = 
ORIGINATOR     = 

OBJECT_NAME    = STARLINK-36454
OBJECT_ID      = 2026-008AB
CENTER_NAME    = EARTH
REF_FRAME      = TEME
TIME_SYSTEM    = UTC
MEAN_ELEMENT_THEORY = SGP/SGP4

EPOCH          = 2026-02-04T04:00:01.999584
MEAN_MOTION    = 15.64733980
ECCENTRICITY   = .0001078
INCLINATION    = 42.9999
RA_OF_ASC_NODE = 36.6676
ARG_OF_PERICENTER = 256.8532
MEAN_ANOMALY   = 1.2650

EPHEMERIS_TYPE = 0
CLASSIFICATION_TYPE = U
NORAD_CAT_ID   = 67470
ELEMENT_SET_NO = 999
REV_AT_EPOCH   = 440
BSTAR          = -.23907E-1
MEAN_MOTION_DOT = -.2088356E-1
MEAN_MOTION_DDOT = 0

CCSDS_OMM_VERS = 2.0
CREATION_DATE  = 
ORIGINATOR     = 

OBJECT_NAME    = STARLINK-36334
OBJECT_ID      = 2026-008AC
CENTER_NAME    = EARTH
REF_FRAME      = TEME
TIME_SYSTEM    = UTC
MEAN_ELEMENT_THEORY = SGP/SGP4

EPOCH          = 2026-02-04T04:00:01.999584
MEAN_MOTION    = 15.68284956
ECCENTRICITY   = .0001165
INCLINATION    = 42.9998
RA_OF_ASC_NODE = 36.6175
ARG_OF_PERICENTER = 255.6186
MEAN_ANOMALY   = 22.9166

EPHEMERIS_TYPE = 0
CLASSIFICATION_TYPE = U
NORAD_CAT_ID   = 67471
ELEMENT_SET_NO = 999
REV_AT_EPOCH   = 440
BSTAR          = -.20857E-1
MEAN_MOTION_DOT = -.2104579E-1
MEAN_MOTION_DDOT = 0

CCSDS_OMM_VERS = 2.0
CREATION_DATE  = 
ORIGINATOR     = 

OBJECT_NAME    = STARLINK-36269
OBJECT_ID      = 2026-008AD
CENTER_NAME    = EARTH
REF_FRAME      = TEME
TIME_SYSTEM    = UTC
MEAN_ELEMENT_THEORY = SGP/SGP4

EPOCH          = 2026-02-04T04:00:01.999584
MEAN_MOTION    = 15.66416064
ECCENTRICITY   = .0001538
INCLINATION    = 42.9998
RA_OF_ASC_NODE = 36.6327
ARG_OF_PERICENTER = 241.8924
MEAN_ANOMALY   = 30.0773

EPHEMERIS_TYPE = 0
CLASSIFICATION_TYPE = U
NORAD_CAT_ID   = 67472
ELEMENT_SET_NO = 999
REV_AT_EPOCH   = 442
BSTAR          = -.25566E-1
MEAN_MOTION_DOT = -.239975E-1
MEAN_MOTION_DDOT = 0

CCSDS_OMM_VERS = 2.0
CREATION_DATE  = 
ORIGINATOR     = 

OBJECT_NAME    = STARLINK-36408
OBJECT_ID      = 2026-008AE
CENTER_NAME    = EARTH
REF_FRAME      = TEME
TIME_SYSTEM    = UTC
MEAN_ELEMENT_THEORY = SGP/SGP4

EPOCH          = 2026-02-04T04:00:01.999584
MEAN_MOTION    = 15.63734847
ECCENTRICITY   = .0001081
INCLINATION    = 42.9999
RA_OF_ASC_NODE = 36.6739
ARG_OF_PERICENTER = 257.6284
MEAN_ANOMALY   = 357.5673

EPHEMERIS_TYPE = 0
CLASSIFICATION_TYPE = U
NORAD_CAT_ID   = 67473
ELEMENT_SET_NO = 999
REV_AT_EPOCH   = 442
BSTAR          = -.24896E-1
MEAN_MOTION_DOT = -.2089136E-1
MEAN_MOTION_DDOT = 0

CCSDS_OMM_VERS = 2.0
CREATION_DATE  = 
ORIGINATOR     = 

OBJECT_NAME    = ALSAT-3A
OBJECT_ID      = 2026-009A
CENTER_NAME    = EARTH
REF_FRAME      = TEME
TIME_SYSTEM    = UTC
MEAN_ELEMENT_THEORY = SGP/SGP4

EPOCH          = 2026-02-04T04:20:24.539712
MEAN_MOTION    = 15.23369218
ECCENTRICITY   = .0012098
INCLINATION    = 97.4686
RA_OF_ASC_NODE = 109.8619
ARG_OF_PERICENTER = 185.5919
MEAN_ANOMALY   = 174.5184

EPHEMERIS_TYPE = 0
CLASSIFICATION_TYPE = U
NORAD_CAT_ID   = 67474
ELEMENT_SET_NO = 999
REV_AT_EPOCH   = 302
BSTAR          = .33092E-3
MEAN_MOTION_DOT = .7812E-4
MEAN_MOTION_DDOT = 0

CCSDS_OMM_VERS = 2.0
CREATION_DATE  = 
ORIGINATOR     = 

OBJECT_NAME    = CZ-2C R/B
OBJECT_ID      = 2026-009B
CENTER_NAME    = EARTH
REF_FRAME      = TEME
TIME_SYSTEM    = UTC
MEAN_ELEMENT_THEORY = SGP/SGP4

EPOCH          = 2026-02-04T04:26:16.496160
MEAN_MOTION    = 15.03089854
ECCENTRICITY   = .0100186
INCLINATION    = 97.1770
RA_OF_ASC_NODE = 108.1935
ARG_OF_PERICENTER = 153.5355
MEAN_ANOMALY   = 207.1038

EPHEMERIS_TYPE = 0
CLASSIFICATION_TYPE = U
NORAD_CAT_ID   = 67475
ELEMENT_SET_NO = 999
REV_AT_EPOCH   = 304
BSTAR          = .27635E-3
MEAN_MOTION_DOT = .4099E-4
MEAN_MOTION_DDOT = 0

CCSDS_OMM_VERS = 2.0
CREATION_DATE  = 
ORIGINATOR     = 

OBJECT_NAME    = TIANQI-37
OBJECT_ID      = 2026-010A
CENTER_NAME    = EARTH
REF_FRAME      = TEME
TIME_SYSTEM    = UTC
MEAN_ELEMENT_THEORY = SGP/SGP4

EPOCH          = 2026-02-04T04:16:37.687008
MEAN_MOTION    = 14.13524596
ECCENTRICITY   = .0013007
INCLINATION    = 44.9832
RA_OF_ASC_NODE = 315.3316
ARG_OF_PERICENTER = 49.1689
MEAN_ANOMALY   = 311.0275

EPHEMERIS_TYPE = 0
CLASSIFICATION_TYPE = U
NORAD_CAT_ID   = 67476
ELEMENT_SET_NO = 999
REV_AT_EPOCH   = 274
BSTAR          = .30703E-3
MEAN_MOTION_DOT = .449E-5
MEAN_MOTION_DDOT = 0

CCSDS_OMM_VERS = 2.0
CREATION_DATE  = 
ORIGINATOR     = 

OBJECT_NAME    = TIANQI-38
OBJECT_ID      = 2026-010B
CENTER_NAME    = EARTH
REF_FRAME      = TEME
TIME_SYSTEM    = UTC
MEAN_ELEMENT_THEORY = SGP/SGP4

EPOCH          = 2026-02-04T04:11:49.925760
MEAN_MOTION    = 14.13901736
ECCENTRICITY   = .0011811
INCLINATION    = 44.9794
RA_OF_ASC_NODE = 315.3064
ARG_OF_PERICENTER = 54.4164
MEAN_ANOMALY   = 305.7774

EPHEMERIS_TYPE = 0
CLASSIFICATION_TYPE = U
NORAD_CAT_ID   = 67477
ELEMENT_SET_NO = 999
REV_AT_EPOCH   = 274
BSTAR          = .37334E-3
MEAN_MOTION_DOT = .58E-5
MEAN_MOTION_DDOT = 0

